ASTRA 1KR               
1 29055U 06012A   26196.56084677  .00000108  00000+0  00000+0 0  9994
2 29055   0.5451  83.1729 0003310  23.4697  47.6555  1.00270591 45989
GALAXY 16 (G-16)        
1 29236U 06023A   26196.51016899 -.00000137  00000+0  00000+0 0  9996
2 29236   0.0244 160.6690 0002486 311.9113 265.4233  1.00271291 73256
EUTELSAT 33F            
1 29270U 06032A   26196.56362012  .00000144  00000+0  00000+0 0  9997
2 29270   1.7329  81.9240 0003422  29.2552  58.1903  1.00271971 47593
JCSAT-3A                
1 29272U 06033A   26196.55391690 -.00000355  00000+0  00000+0 0  9998
2 29272   0.0130  23.1373 0001828  91.7026 145.9655  1.00270480 48022
KOREASAT 5 (MUGUNGWHA 5)
1 29349U 06034A   26196.58905984 -.00000369  00000+0  00000+0 0  9999
2 29349   1.8565  82.6350 0001861  81.7615  94.1440  1.00269496 41602
DIRECTV 9S              
1 29494U 06043A   26196.32998821 -.00000125  00000+0  00000+0 0  9994
2 29494   2.4913  80.5621 0005033  34.3920 195.8137  1.00271027 51665
OPTUS D1                
1 29495U 06043B   26196.58716726 -.00000196  00000+0  00000+0 0  9993
2 29495   3.1058  79.3058 0003357  32.3097 185.1432  1.00269881 72404
BADR-4                  
1 29526U 06051A   26196.56388012  .00000144  00000+0  00000+0 0  9990
2 29526   2.0760  80.8079 0004744  31.0591  58.9803  1.00271432 51550
WILDBLUE-1              
1 29643U 06054A   26196.60632069 -.00000061  00000+0  00000+0 0  9991
2 29643   2.8744  80.1252 0001308  41.4814 278.9067  1.00271344 54070
SKYNET 5A               
1 30794U 07007B   26196.56101407 -.00000284  00000+0  00000+0 0  9998
2 30794   5.3698  73.3934 0003688  45.6116 111.5604  1.00269224 70981
ANIK F3                 
1 31102U 07009A   26196.60484735 -.00000012  00000+0  00000+0 0  9996
2 31102   1.2691  83.5070 0002458  30.0176 278.9412  1.00271199 46842
ASTRA 1L                
1 31306U 07016A   26196.48084514 -.00000195  00000+0  00000+0 0  9999
2 31306   1.3928  81.3467 0005208  34.6751 325.8996  1.00271075 45271
GALAXY 17 (G-17)        
1 31307U 07016B   26196.54023793 -.00000218  00000+0  00000+0 0  9995
2 31307   3.0412  79.5411 0003563  34.2485 289.0568  1.00271699 70084
INTELSAT 11 (IS-11)     
1 32253U 07044B   26196.34361017 -.00000172  00000+0  00000+0 0  9998
2 32253   3.6367  78.3271 0004201 100.5768 239.9327  0.99052241 68724
WGS F1 (USA 195)        
1 32258U 07046A   26196.48794642 -.00000277  00000+0  00000+0 0  9990
2 32258   0.0161  62.8125 0000351 184.9075 178.7651  1.00268219 52615
SKYNET 5B               
1 32294U 07056B   26196.27685914  .00000127  00000+0  00000+0 0  9992
2 32294   5.3208  73.1669 0003722  43.5283 301.2088  1.00274715 68475
ASTRA 4A                
1 32299U 07057A   26196.55790009  .00000022  00000+0  00000+0 0  9995
2 32299   0.0401 286.2077 0002300 193.7886  19.0359  1.00271402 51933
HORIZONS-2              
1 32388U 07063B   26196.54249127 -.00000265  00000+0  00000+0 0  9990
2 32388   2.6732  80.2767 0003553  20.5152 314.0712  1.00269113 68091
THURAYA-3               
1 32404U 08001A   26196.60992060 -.00000003  00000+0  00000+0 0  9990
2 32404   6.0366  35.8230 0002133  77.5893 103.3024  1.00271964 67775
THOR 5                  
1 32487U 08006A   26196.55694675 -.00000019  00000+0  00000+0 0  9998
2 32487   0.0306 231.9312 0002332 250.9301  10.2772  1.00271388 67604
AMC-14                  
1 32708U 08011A   26196.50155855 -.00000191  00000+0  00000+0 0  9998
2 32708  24.0428  20.1781 0039604   8.4392 164.2123  1.00420371 68459
DIRECTV 11              
1 32729U 08013A   26196.51016899 -.00000136  00000+0  00000+0 0  9997
2 32729   0.0353 223.2222 0000080 348.5472 166.0602  1.00271599 45871
ICO G1                  
1 32763U 08016A   26196.60987404 -.00000184  00000+0  00000+0 0  9990
2 32763   5.5256  36.0310 0002356  66.6258 317.4954  1.00272347 66830
VINASAT-1               
1 32767U 08018A   26196.55391690 -.00000338  00000+0  00000+0 0  9997
2 32767   0.0505 268.1720 0001543 224.2941 132.2755  1.00270427 66875
STAR ONE C2             
1 32768U 08018B   26196.49350429 -.00000287  00000+0  00000+0 0  9999
2 32768   1.3106  82.1929 0002751  48.7478 275.0529  1.00270728 66934
AMOS-3                  
1 32794U 08022A   26196.49774521 -.00000008  00000+0  00000+0 0  9997
2 32794   0.5263  85.8000 0003018  84.5441   2.6776  1.00488327 82621
GALAXY 18 (G-18)        
1 32951U 08024A   26196.60398067  .00000015  00000+0  00000+0 0  9991
2 32951   0.0151  59.4809 0002882  68.4425 259.9501  1.00271576 46137
ZHONGXING-9             
1 33051U 08028A   26196.66628244 -.00000259  00000+0  00000+0 0  9997
2 33051   0.8391  84.9492 0003248  28.1282 152.6454  1.00269157 66326
SKYNET 5C               
1 33055U 08030A   26196.41096167 -.00000152  00000+0  00000+0 0  9992
2 33055   3.8591  76.7039 0004100  46.2942 300.4060  1.00272254 66231
TURKSAT 3A              
1 33056U 08030B   26196.56535345  .00000136  00000+0  00000+0 0  9996
2 33056   0.0358  74.3154 0004890  21.0402  83.5511  1.00270457 52645
ECHOSTAR 11             
1 33207U 08035A   26196.60658069 -.00000069  00000+0  00000+0 0  9999
2 33207   1.0767  83.8498 0002210  20.3362 297.8247  1.00270875 51497
SUPERBIRD-C2            
1 33274U 08038A   26196.55391690 -.00000318  00000+0  00000+0 0  9991
2 33274   2.4321  80.9086 0006174  38.0866 149.8082  1.00272673106011
INMARSAT 4-F3           
1 33278U 08039A   26196.60892071 -.00000152  00000+0  00000+0 0  9997
2 33278   4.3164  31.6903 0002730  88.8693 294.1126  1.00271387 46834
NIMIQ 4                 
1 33373U 08044A   26196.54084459 -.00000230  00000+0  00000+0 0  9992
2 33373   0.0130  25.3280 0001950  74.0663 306.6960  1.00271713 65267
GALAXY 19 (G-19)        
1 33376U 08045A   26196.60918071 -.00000149  00000+0  00000+0 0  9998
2 33376   0.0561 246.8369 0002312 237.6388 291.2852  1.00270568 65187
ASTRA 1M                
1 33436U 08057A   26196.56093344  .00000110  00000+0  00000+0 0  9997
2 33436   0.3674  82.7690 0004442  41.5005  30.4448  1.00269655 46021
EUTELSAT HOTBIRD 13C    
1 33459U 08065A   26196.54706670 -.00000295  00000+0  00000+0 0  9997
2 33459   3.0212  78.8545 0003375  37.3425 323.8274  1.00270594 47630
EXPRESS-AM44            
1 33595U 09007A   26196.41234833 -.00000102  00000+0  00000+0 0  9995
2 33595   3.5332  78.0442 0003612  30.9082 321.7251  1.00271015 52568
NSS-9                   
1 33749U 09008A   26196.56850328  .00000061  00000+0  00000+0 0  9999
2 33749   1.3331  82.3749 0001878  21.5382 217.2195  1.00272108 63802
TELSTAR 11N             
1 34111U 09009A   26196.48794642 -.00000261  00000+0  00000+0 0  9994
2 34111   0.0383 259.2848 0002184 205.7433 326.3951  1.00273003 46525
WGS F2 (USA 204)        
1 34713U 09017A   26196.63977418  .00000058  00000+0  00000+0 0  9995
2 34713   0.0160  41.6659 0000298 192.0212 347.5946  1.00270192 45902
SES-7 (PROTOSTAR 2)     
1 34941U 09027A   26196.58815106 -.00000355  00000+0  00000+0 0  9999
2 34941   0.0101  43.2780 0001416 156.4936  53.6259  1.00269711 62910
MEASAT-3A               
1 35362U 09032A   26195.09162029 -.00000117  00000+0  00000+0 0  9993
2 35362   0.0359 317.7686 0002568 143.9350  23.2173  1.00269864  8307
GOES 14                 
1 35491U 09033A   26196.55391690 -.00000369  00000+0  00000+0 0  9996
2 35491   1.7609  82.6880 0001928  40.3512 134.6172  1.00097897  6870
FM-5                    
1 35493U 09034A   26194.90035760 -.00000205  00000+0  00000+0 0  9998
2 35493   0.0457 259.5714 0000757  86.9227 183.2440  1.00271245 46912
TERRESTAR-1             
1 35496U 09035A   26194.52058797 -.00000064  00000+0  00000+0 0  9998
2 35496   5.1989  48.7738 0002618  55.2029 263.8324  1.00270674 62393
ASIASAT 5               
1 35696U 09042A   26196.66978043  .00000000  00000+0  00000+0 0  9999
2 35696   0.0287  75.8278 0001467  30.9955 168.3819  1.00266727 61996
JCSAT-12 (JCSAT-RA)     
1 35755U 09044A   26196.58323512 -.00000338  00000+0  00000+0 0  9998
2 35755   0.0552 264.1861 0000794 290.0555  81.2014  1.00271919 61893
OPTUS D3                
1 35756U 09044B   26193.95034191 -.00000147  00000+0  00000+0 0  9997
2 35756   0.8917 268.2973 0002923 204.5770 316.2131  1.00268614 61823
NIMIQ 5                 
1 35873U 09050A   26196.54257794 -.00000267  00000+0  00000+0 0  9991
2 35873   0.0439 236.6762 0002553 232.9793 306.3535  1.00270669 61627
AMAZONAS 2              
1 35942U 09054A   26196.66902831 -.00000270  00000+0  00000+0 0  9998
2 35942   1.8872  82.6824 0003173  32.9998 346.6741  1.00269769 61474
COMSATBW-1              
1 35943U 09054B   26196.49826521  .00000015  00000+0  00000+0 0  9997
2 35943   0.0637 173.3377 0002649 301.7320  60.6626  1.00269948 61596
NSS-12                  
1 36032U 09058A   26196.63968751  .00000062  00000+0  00000+0 0  9991
2 36032   0.0917 269.4946 0004871 169.2831 141.9766  1.00270768 61207
THOR 6                  
1 36033U 09058B   26196.34300351  .00000000  00000+0  00000+0 0  9998
2 36033   0.0176  80.1971 0001628  36.1840 299.4552  1.00269792 61285
INTELSAT 14 (IS-14)     
1 36097U 09064A   26196.48794642 -.00000284  00000+0  00000+0 0  9995
2 36097   0.0172 313.3270 0002209 170.7008 299.9541  1.00268516 60882
EUTELSAT 36B            
1 36101U 09065A   26196.63838750  .00000101  00000+0  00000+0 0  9995
2 36101   0.5610  81.3280 0005762  34.0886  98.3914  1.00274091 60998
INTELSAT 15 (IS-15)     
1 36106U 09067A   26196.57396175 -.00000194  00000+0  00000+0 0  9998
2 36106   0.0165 355.4995 0002232 124.1533 105.5189  1.00268553 41518
WGS F3 (USA 211)        
1 36108U 09068A   26196.60259400  .00000054  00000+0  00000+0 0  9998
2 36108   0.2978  85.6157 0000661  93.1691 201.6035  1.00271887 46876
DIRECTV 12              
1 36131U 09075A   26195.96641635 -.00000112  00000+0  00000+0 0  9991
2 36131   0.0065 109.4409 0000351 121.9560 306.6005  1.00271543 46831
